a   0.1264604      Node   228.38558     -0.69763165     -0.53286243
e   0.3897678      Incl.  171.97726     -0.45005159     -0.19418790
P   2.66           H   16.34          P/d   971.48
From 21 observations 2004 Dec. 12-2021 July 9, mean residual 0".10.
</pre>
 <p></p><hr><p>
</p><h2>S/2004 S 44</h2>
<pre>Epoch 2023 Feb. 25.0 TT = JDT 2460000.5                 Alexanders
M  21.60870              (2000.0)            P               Q
n   0.35468790     Peri.  195.72479     -0.70457526     -0.68978107
a   0.1302075      Node    60.57632     -0.62870393     +0.71568348
e   0.1285851      Incl.  168.96891     -0.32909735     +0.10954102
P   2.78           H   15.82          P/d  1014.98
From 28 observations 2004 Dec. 12-2021 July 8, mean residual 0".11.
</pre>
 <p></p><hr><p>
</p><h2>S/2004 S 45</h2>
<pre>Epoch 2023 Feb. 25.0 TT = JDT 2460000.5                 Alexanders
M 108.80657              (2000.0)            P               Q
n   0.33995969     Peri.   22.07944     +0.47095648     -0.81685289
a   0.1339416      Node   318.02755     -0.86539691     -0.50106015
e   0.4636643      Incl.  150.12783     -0.17113791     +0.28581476
P   2.90           H   15.97          P/d  1058.95
From 35 observations 2004 Dec. 13-2021 July 8, mean residual 0".14.
</pre>
 <p></p><hr><p>
</p><h2>S/2004 S 46</h2>
<pre>Epoch 2023 Feb. 25.0 TT = JDT 2460000.5                 Alexanders
M  96.72536              (2000.0)            P               Q
n   0.33551683     Peri.  289.48129     +0.99762795     -0.01790604
a   0.1351214      Node   288.41074     +0.00845714     -0.92637753
e   0.2288732      Incl.  175.98301     -0.06831501     -0.37617024
P   2.94           H   16.40          P/d  1072.97
From 22 observations 2004 Dec. 12-2021 July 8, mean residual 0".07.
</pre>
 <p></p><hr><p>
</p><h2>S/2004 S 47</h2>
<pre>Epoch 2023 Feb. 25.0 TT = JDT 2460000.5                 Alexanders
M  65.54401              (2000.0)            P               Q
n   0.47638489     Peri.  301.31857     +0.95051002     +0.15069872
a   0.1069617      Node   308.52176     +0.20267065     -0.96355922
e   0.2864343      Incl.  159.67916     -0.23548951     -0.22100571
P   2.07           H   16.29          P/d   755.69
From 22 observations 2004 Dec. 12-2021 July 9, mean residual 0".12.
</pre>
 <p></p><hr><p>
</p><h2>S/2004 S 48</h2>
<pre>Epoch 2023 Feb. 25.0 TT = JDT 2460000.5                 Alexanders
M  94.77413              (2000.0)            P               Q
n   0.28834124     Peri.  342.29468     -0.42154488     -0.87000876
a   0.1494844      Node   228.22816     -0.78498486     +0.20893420
e   0.4161109      Incl.  159.94894     -0.45398092     +0.44657727
P   3.42           H   15.95          P/d  1248.52
From 20 observations 2004 Dec. 12-2021 July 8, mean residual 0".17.
</pre>
 <p></p><hr><p>
</p><h2>S/2004 S 49</h2>
<pre>Epoch 2023 Feb. 25.0 TT = JDT 2460000.5                 Alexanders
M 275.13961              (2000.0)            P               Q
n   0.27899532     Peri.  216.62990     +0.85032332     +0.40855146
a   0.1528044      Node   243.98349     +0.52612522     -0.67425953
e   0.4542585      Incl.  158.33861     -0.01193794     -0.61519085
P   3.53           H   15.97          P/d  1290.34
From 25 observations 2004 Dec. 13-2021 July 9, mean residual 0".12.
</pre>
 <p></p><hr><p>
</p><h2>S/2004 S 50</h2>
<pre>Epoch 2023 Feb. 25.0 TT = JDT 2460000.5                 Alexanders
M 334.23694              (2000.0)            P               Q
n   0.29529737     Peri.  225.49286     +0.93291811     -0.34083080
a   0.1471275      Node   206.22809     -0.20748797     -0.77251044
e   0.3773336      Incl.  164.75858     -0.29430010     -0.53578167
P   3.34           H   16.40          P/d  1219.11
From 26 observations 2004 Dec. 12-2021 July 9, mean residual 0".11.
</pre>
 <p></p><hr><p>
</p><h2>S/2004 S 51</h2>
<pre>Epoch 2023 Feb. 25.0 TT = JDT 2460000.5                 Alexanders
M 286.44986              (2000.0)            P               Q
n   0.23306256     Peri.   96.74461     -0.73848751     -0.66349165
a   0.1722736      Node   318.21332     -0.66762249     +0.69458775
e   0.1976895      Incl.  169.61993     -0.09442678     +0.27807675
P   4.23           H   16.13          P/d  1544.65
From 36 observations 2004 Dec. 12-2021 July 8, mean residual 0".09.
</pre>
 <p></p><hr><p>
</p><h2>S/2004 S 52</h2>
<pre>Epoch 2023 Feb. 25.0 TT = JDT 2460000.5                 Alexanders
M  18.67016              (2000.0)            P               Q
n   0.22879149     Peri.  346.25457     -0.28329911     -0.92453285
a   0.1744110      Node   240.33931     -0.84984118     +0.11883851
e   0.2901736      Incl.  162.94136     -0.44442276     +0.36210000
P   4.31           H   16.50          P/d  1573.49
From 15 observations 2004 Dec. 12-2020 July 24, mean residual 0".07.
</pre>
 <p></p><hr><p>
</p><h2>S/2004 S 53</h2>
<pre>Epoch 2023 Feb. 25.0 TT = JDT 2460000.5                 Alexanders
M 121.72433              (2000.0)            P               Q
n   0.26321252     Peri.  334.59395     -0.01153355     -0.95517884
a   0.1588532      Node   245.15158     -0.85277135     -0.14508111
e   0.2258833      Incl.  160.97485     -0.52215707     +0.25804040
P   3.74           H   16.16          P/d  1367.72
From 27 observations 2004 Dec. 12-2021 July 8, mean residual 0".15.
</pre>
 <p></p><hr><p>
</p><h2>S/2005 S 4</h2>
<pre>Epoch 2023 Feb. 25.0 TT = JDT 2460000.5                 Alexanders
M 177.83829              (2000.0)            P               Q
n   0.80245051     Peri.  106.80754     +0.09574189     +0.96506054
a   0.0755535      Node   162.08596     -0.89271850     -0.02514580
e   0.1769935      Incl.   52.46383     +0.44032621     -0.26081764
P   1.23           H   15.69          P/d   448.63
From 27 observations 2004 Dec. 12-2021 July 8, mean residual 0".19.
</pre>
 <p></p><hr><p>
</p><h2>S/2005 S 5</h2>
<pre>Epoch 2023 Feb. 25.0 TT = JDT 2460000.5                 Alexanders
M  84.38499              (2000.0)            P               Q
n   0.31617340     Peri.  329.69462     -0.94648393     +0.30765176
a   0.1405778      Node   131.44505     +0.31604734     +0.82217630
e   0.5097232      Incl.  172.52144     +0.06543888     +0.47893270
P   3.12           H   16.36          P/d  1138.62
From 22 observations 2005 Mar. 9-2020 July 24, mean residual 0".07.
</pre>
 <p></p><hr><p>
</p><h2>S/2006 S 1</h2>
<pre>Epoch 2023 Feb. 25.0 TT = JDT 2460000.5                 Alexanders
M   3.85731              (2000.0)            P               Q
n   0.37223180     Peri.  178.49285     -0.99447427     +0.09052853
a   0.1260834      Node   352.63479     +0.09145851     +0.99569093
e   0.0858453      Incl.  155.50265     +0.05153902     -0.02010353
P   2.65           H   15.65          P/d   967.14
From 45 observations 2005 Jan. 5-2021 July 8, mean residual 0".21.
</pre>
 <p></p><hr><p>
</p><h2>S/2006 S 3</h2>
<pre>Epoch 2023 Feb. 25.0 TT = JDT 2460000.5                 Alexanders
M 207.34769              (2000.0)            P               Q
n   0.30794803     Peri.  205.41965     +0.85694097     +0.37139260
a   0.1430700      Node   232.08001     +0.51528725     -0.60192314
e   0.4295735      Incl.  153.06197     +0.01145540     -0.70693428
P   3.20           H   15.65          P/d  1169.03
From 36 observations 2004 Dec. 12-2021 July 8, mean residual 0".29.
</pre>
 <p></p><hr><p>
</p><h2>S/2006 S 9</h2>
<pre>Epoch 2023 Feb. 25.0 TT = JDT 2460000.5                 Alexanders
M  74.01456              (2000.0)            P               Q
n   0.55494690     Peri.    5.01993     +0.70711928     +0.70270869
a   0.0966124      Node    49.99021     +0.64512074     -0.68666876
e   0.2681965      Incl.  174.10762     +0.28948499     -0.18624315
P   1.78           H   16.48          P/d   648.71
From 18 observations 2006 Feb. 1-2021 July 9, mean residual 0".07.
</pre>
 <p></p><hr><p>
</p><h2>S/2006 S 10</h2>
<pre>Epoch 2023 Feb. 25.0 TT = JDT 2460000.5                 Alexanders
M   9.88876              (2000.0)            P               Q
n   0.37295808     Peri.  121.41186     -0.30255137     -0.94982763
a   0.1259197      Node    14.46296     -0.94619009     +0.30933113
e   0.1544342      Incl.  161.48494     -0.11483458     -0.04627870
P   2.64           H   16.43          P/d   965.26
From 27 observations 2006 Jan. 5-2021 July 8, mean residual 0".09.
</pre>
 <p></p><hr><p>
</p><h2>S/2006 S 11</h2>
<pre>Epoch 2023 Feb. 25.0 TT = JDT 2460000.5                 Alexanders
M  19.31475              (2000.0)            P               Q
n   0.35347759     Peri.  186.46810     +0.16264915     +0.97693976
a   0.1305046      Node   267.04443     +0.91135821     -0.09502418
e   0.1367366      Incl.  172.03838     +0.37811568     -0.19120435
P   2.79           H   16.47          P/d  1018.45
From 25 observations 2006 Jan. 5-2021 July 9, mean residual 0".14.
</pre>
 <p></p><hr><p>
</p><h2>S/2006 S 12</h2>
<pre>Epoch 2023 Feb. 25.0 TT = JDT 2460000.5                 Alexanders
M 312.64484              (2000.0)            P               Q
n   0.34510695     Peri.  127.48580     -0.44890193     +0.65239158
a   0.1326064      Node   104.15167     -0.87844036     -0.44744613
e   0.4849754      Incl.   39.03125     +0.16379739     -0.61170025
P   2.86           H   16.20          P/d  1043.15
From 27 observations 2006 Jan. 5-2021 July 8, mean residual 0".16.
</pre>
 <p></p><hr><p>
</p><h2>S/2006 S 13</h2>
<pre>Epoch 2023 Feb. 25.0 TT = JDT 2460000.5                 Alexanders
M 236.52755              (2000.0)            P               Q
n   0.33906601     Peri.  283.80620     -0.84434107     +0.47249537
a   0.1341768      Node    75.08701     +0.53388953     +0.78175879
e   0.2734549      Incl.  164.84298     -0.04527823     +0.40694141
P   2.91           H   16.05          P/d  1061.74
From 24 observations 2006 Jan. 6-2021 July 8, mean residual 0".09.
</pre>
 <p></p><hr><p>
</p><h2>S/2006 S 14</h2>
<pre>Epoch 2023 Feb. 25.0 TT = JDT 2460000.5                 Alexanders
